COSMOS 2251 DEB         
1 34276U 93036LW  26064.08308277  .00003154  00000+0  69312-3 0  9992
2 34276  74.0219 288.6873 0021054  51.8310 101.2200 14.57832798897924
COSMOS 2251 DEB         
1 34297U 93036MT  26064.21368950  .00000458  00000+0  16399-3 0  9995
2 34297  74.0480 132.7842 0017376 190.2065 229.5837 14.36709999892499
COSMOS 2251 DEB         
1 34301U 93036MX  26064.26881683  .00048728  00000+0  50424-2 0  9997
2 34301  74.0058   1.9936 0005354  52.1470  98.7202 14.89808307896279
COSMOS 2251 DEB         
1 34302U 93036MY  26064.19879078  .00002840  00000+0  88088-3 0  9998
2 34302  74.1810 332.6291 0078493 165.4599 346.9279 14.39801133889076
COSMOS 2251 DEB         
1 34303U 93036MZ  26064.23082265  .00007470  00000+0  15113-2 0  9990
2 34303  74.0045 131.5259 0137935 250.8711 164.9297 14.55590303891622
COSMOS 2251 DEB         
1 34304U 93036NA  26064.13890591  .00004817  00000+0  14413-2 0  9993
2 34304  74.0153 330.5041 0125922  88.9685  29.0327 14.38607578884818
COSMOS 2251 DEB         
1 34307U 93036ND  26064.30358153  .00000811  00000+0  74518-3 0  9991
2 34307  74.0538 180.6179 0392655 353.3191  33.6150 13.54471971839801
COSMOS 2251 DEB         
1 34313U 93036NK  26064.25938740  .00345460  00000+0  65187-2 0  9991
2 34313  73.9631 129.0099 0022314 295.2123  64.6775 15.46866382903276
COSMOS 2251 DEB         
1 34314U 93036NL  26064.26503171  .00001616  00000+0  76407-3 0  9999
2 34314  74.0059 161.0849 0105594 248.9203 141.3284 14.17653462878277
COSMOS 2251 DEB         
1 34316U 93036NN  26064.29800788  .00030321  00000+0  26842-2 0  9990
2 34316  74.0654 170.9894 0012450 266.9579  93.0181 14.96085452904424
COSMOS 2251 DEB         
1 34317U 93036NP  26063.55748512  .00000951  00000+0  81531-3 0  9998
2 34317  73.9213 261.0407 0336605 235.0560 158.4287 13.65247622847360
COSMOS 2251 DEB         
1 34321U 93036NT  26064.21772046  .00002827  00000+0  72858-3 0  9992
2 34321  74.0320   1.3461 0013749 115.9989   3.1769 14.50474231896822
COSMOS 2251 DEB         
1 34323U 93036NV  26064.07579148  .00017585  00000+0  24178-2 0  9994
2 34323  73.9538 321.1767 0055159 344.4044 131.0948 14.77236915896540
COSMOS 2251 DEB         
1 34325U 93036NX  26063.43347661  .00004394  00000+0  23422-2 0  9993
2 34325  73.8704  48.8058 0188713  50.1208 107.6062 14.04924736866625
COSMOS 2251 DEB         
1 34327U 93036NZ  26064.27477022  .00016676  00000+0  16401-2 0  9998
2 34327  73.9963   6.1898 0032401 168.1516 342.0437 14.91707428907370
COSMOS 2251 DEB         
1 34340U 93036PN  26064.31360624  .00002801  00000+0  19912-2 0  9992
2 34340  74.0791 170.0223 0289140 259.3625 132.1692 13.79879811854077
