[{"OBJECT_NAME":"COSMOS 2251 DEB","OBJECT_ID":"1993-036LW","EPOCH":"2026-03-05T01:59:38.351328","MEAN_MOTION":14.57832798,"ECCENTRICITY":0.00210547,"INCLINATION":74.0219,"RA_OF_ASC_NODE":288.6873,"ARG_OF_PERICENTER":51.831,"MEAN_ANOMALY":101.22,"EPHEMERIS_TYPE":0,"CLASSIFICATION_TYPE":"U","NORAD_CAT_ID":34276,"ELEMENT_SET_NO":999,"REV_AT_EPOCH":89792,"BSTAR":0.00069311784,"MEAN_MOTION_DOT":3.154e-5,"MEAN_MOTION_DDOT":0},{"OBJECT_NAME":"COSMOS 2251 DEB","OBJECT_ID":"1993-036MT","EPOCH":"2026-03-05T05:07:42.772800","MEAN_MOTION":14.36709999,"ECCENTRICITY":0.00173766,"INCLINATION":74.048,"RA_OF_ASC_NODE":132.7842,"ARG_OF_PERICENTER":190.2065,"MEAN_ANOMALY":229.5837,"EPHEMERIS_TYPE":0,"CLASSIFICATION_TYPE":"U","NORAD_CAT_ID":34297,"ELEMENT_SET_NO":999,"REV_AT_EPOCH":89249,"BSTAR":0.00016399045,"MEAN_MOTION_DOT":4.58e-6,"MEAN_MOTION_DDOT":0},{"OBJECT_NAME":"COSMOS 2251 DEB","OBJECT_ID":"1993-036MX","EPOCH":"2026-03-05T06:27:05.774112","MEAN_MOTION":14.89808307,"ECCENTRICITY":0.00053549,"INCLINATION":74.0058,"RA_OF_ASC_NODE":1.9936,"ARG_OF_PERICENTER":52.147,"MEAN_ANOMALY":98.7202,"EPHEMERIS_TYPE":0,"CLASSIFICATION_TYPE":"U","NORAD_CAT_ID":34301,"ELEMENT_SET_NO":999,"REV_AT_EPOCH":89627,"BSTAR":0.0050423898,"MEAN_MOTION_DOT":0.00048728,"MEAN_MOTION_DDOT":0},{"OBJECT_NAME":"COSMOS 2251 DEB","OBJECT_ID":"1993-036MY","EPOCH":"2026-03-05T04:46:15.523392","MEAN_MOTION":14.39801133,"ECCENTRICITY":0.00784935,"INCLINATION":74.181,"RA_OF_ASC_NODE":332.6291,"ARG_OF_PERICENTER":165.4599,"MEAN_ANOMALY":346.9279,"EPHEMERIS_TYPE":0,"CLASSIFICATION_TYPE":"U","NORAD_CAT_ID":34302,"ELEMENT_SET_NO":999,"REV_AT_EPOCH":88907,"BSTAR":0.00088088294,"MEAN_MOTION_DOT":2.84e-5,"MEAN_MOTION_DDOT":0},{"OBJECT_NAME":"COSMOS 2251 DEB","OBJECT_ID":"1993-036MZ","EPOCH":"2026-03-05T05:32:23.076960","MEAN_MOTION":14.55590303,"ECCENTRICITY":0.0137935,"INCLINATION":74.0045,"RA_OF_ASC_NODE":131.5259,"ARG_OF_PERICENTER":250.8711,"MEAN_ANOMALY":164.9297,"EPHEMERIS_TYPE":0,"CLASSIFICATION_TYPE":"U","NORAD_CAT_ID":34303,"ELEMENT_SET_NO":999,"REV_AT_EPOCH":89162,"BSTAR":0.0015112855,"MEAN_MOTION_DOT":7.47e-5,"MEAN_MOTION_DDOT":0},{"OBJECT_NAME":"COSMOS 2251 DEB","OBJECT_ID":"1993-036NA","EPOCH":"2026-03-05T03:20:01.470624","MEAN_MOTION":14.38607578,"ECCENTRICITY":0.01259227,"INCLINATION":74.0153,"RA_OF_ASC_NODE":330.5041,"ARG_OF_PERICENTER":88.9685,"MEAN_ANOMALY":29.0327,"EPHEMERIS_TYPE":0,"CLASSIFICATION_TYPE":"U","NORAD_CAT_ID":34304,"ELEMENT_SET_NO":999,"REV_AT_EPOCH":88481,"BSTAR":0.0014413213,"MEAN_MOTION_DOT":4.817e-5,"MEAN_MOTION_DDOT":0},{"OBJECT_NAME":"COSMOS 2251 DEB","OBJECT_ID":"1993-036ND","EPOCH":"2026-03-05T07:17:09.444192","MEAN_MOTION":13.54471971,"ECCENTRICITY":0.03926559,"INCLINATION":74.0538,"RA_OF_ASC_NODE":180.6179,"ARG_OF_PERICENTER":353.3191,"MEAN_ANOMALY":33.615,"EPHEMERIS_TYPE":0,"CLASSIFICATION_TYPE":"U","NORAD_CAT_ID":34307,"ELEMENT_SET_NO":999,"REV_AT_EPOCH":83980,"BSTAR":0.00074518337,"MEAN_MOTION_DOT":8.11e-6,"MEAN_MOTION_DDOT":0},{"OBJECT_NAME":"COSMOS 2251 DEB","OBJECT_ID":"1993-036NK","EPOCH":"2026-03-05T06:13:31.071360","MEAN_MOTION":15.46866382,"ECCENTRICITY":0.00223149,"INCLINATION":73.9631,"RA_OF_ASC_NODE":129.0099,"ARG_OF_PERICENTER":295.2123,"MEAN_ANOMALY":64.6775,"EPHEMERIS_TYPE":0,"CLASSIFICATION_TYPE":"U","NORAD_CAT_ID":34313,"ELEMENT_SET_NO":999,"REV_AT_EPOCH":90327,"BSTAR":0.0065186876,"MEAN_MOTION_DOT":0.0034546,"MEAN_MOTION_DDOT":0},{"OBJECT_NAME":"COSMOS 2251 DEB","OBJECT_ID":"1993-036NL","EPOCH":"2026-03-05T06:21:38.739744","MEAN_MOTION":14.17653462,"ECCENTRICITY":0.01055943,"INCLINATION":74.0059,"RA_OF_ASC_NODE":161.0849,"ARG_OF_PERICENTER":248.9203,"MEAN_ANOMALY":141.3284,"EPHEMERIS_TYPE":0,"CLASSIFICATION_TYPE":"U","NORAD_CAT_ID":34314,"ELEMENT_SET_NO":999,"REV_AT_EPOCH":87827,"BSTAR":0.00076407321,"MEAN_MOTION_DOT":1.616e-5,"MEAN_MOTION_DDOT":0},{"OBJECT_NAME":"COSMOS 2251 DEB","OBJECT_ID":"1993-036NN","EPOCH":"2026-03-05T07:09:07.880832","MEAN_MOTION":14.96085452,"ECCENTRICITY":0.00124502,"INCLINATION":74.0654,"RA_OF_ASC_NODE":170.9894,"ARG_OF_PERICENTER":266.9579,"MEAN_ANOMALY":93.0181,"EPHEMERIS_TYPE":0,"CLASSIFICATION_TYPE":"U","NORAD_CAT_ID":34316,"ELEMENT_SET_NO":999,"REV_AT_EPOCH":90442,"BSTAR":0.0026842331,"MEAN_MOTION_DOT":0.00030321,"MEAN_MOTION_DDOT":0},{"OBJECT_NAME":"COSMOS 2251 DEB","OBJECT_ID":"1993-036NP","EPOCH":"2026-03-04T13:22:46.714368","MEAN_MOTION":13.65247622,"ECCENTRICITY":0.0336605,"INCLINATION":73.9213,"RA_OF_ASC_NODE":261.0407,"ARG_OF_PERICENTER":235.056,"MEAN_ANOMALY":158.4287,"EPHEMERIS_TYPE":0,"CLASSIFICATION_TYPE":"U","NORAD_CAT_ID":34317,"ELEMENT_SET_NO":999,"REV_AT_EPOCH":84736,"BSTAR":0.00081531,"MEAN_MOTION_DOT":9.51e-6,"MEAN_MOTION_DDOT":0},{"OBJECT_NAME":"COSMOS 2251 DEB","OBJECT_ID":"1993-036NT","EPOCH":"2026-03-05T05:13:31.047744","MEAN_MOTION":14.50474231,"ECCENTRICITY":0.00137493,"INCLINATION":74.032,"RA_OF_ASC_NODE":1.3461,"ARG_OF_PERICENTER":115.9989,"MEAN_ANOMALY":3.1769,"EPHEMERIS_TYPE":0,"CLASSIFICATION_TYPE":"U","NORAD_CAT_ID":34321,"ELEMENT_SET_NO":999,"REV_AT_EPOCH":89682,"BSTAR":0.00072858073,"MEAN_MOTION_DOT":2.827e-5,"MEAN_MOTION_DDOT":0},{"OBJECT_NAME":"COSMOS 2251 DEB","OBJECT_ID":"1993-036NV","EPOCH":"2026-03-05T01:49:08.383872","MEAN_MOTION":14.77236915,"ECCENTRICITY":0.0055159,"INCLINATION":73.9538,"RA_OF_ASC_NODE":321.1767,"ARG_OF_PERICENTER":344.4044,"MEAN_ANOMALY":131.0948,"EPHEMERIS_TYPE":0,"CLASSIFICATION_TYPE":"U","NORAD_CAT_ID":34323,"ELEMENT_SET_NO":999,"REV_AT_EPOCH":89654,"BSTAR":0.0024178047,"MEAN_MOTION_DOT":0.00017585,"MEAN_MOTION_DDOT":0},{"OBJECT_NAME":"COSMOS 2251 DEB","OBJECT_ID":"1993-036NX","EPOCH":"2026-03-04T10:24:12.379104","MEAN_MOTION":14.04924736,"ECCENTRICITY":0.01887139,"INCLINATION":73.8704,"RA_OF_ASC_NODE":48.8058,"ARG_OF_PERICENTER":50.1208,"MEAN_ANOMALY":107.6062,"EPHEMERIS_TYPE":0,"CLASSIFICATION_TYPE":"U","NORAD_CAT_ID":34325,"ELEMENT_SET_NO":999,"REV_AT_EPOCH":86662,"BSTAR":0.0023422437,"MEAN_MOTION_DOT":4.394e-5,"MEAN_MOTION_DDOT":0},{"OBJECT_NAME":"COSMOS 2251 DEB","OBJECT_ID":"1993-036NZ","EPOCH":"2026-03-05T06:35:40.147008","MEAN_MOTION":14.91707428,"ECCENTRICITY":0.00324011,"INCLINATION":73.9963,"RA_OF_ASC_NODE":6.1898,"ARG_OF_PERICENTER":168.1516,"MEAN_ANOMALY":342.0437,"EPHEMERIS_TYPE":0,"CLASSIFICATION_TYPE":"U","NORAD_CAT_ID":34327,"ELEMENT_SET_NO":999,"REV_AT_EPOCH":90737,"BSTAR":0.0016401088,"MEAN_MOTION_DOT":0.00016676,"MEAN_MOTION_DDOT":0},{"OBJECT_NAME":"COSMOS 2251 DEB","OBJECT_ID":"1993-036PN","EPOCH":"2026-03-05T07:31:35.579136","MEAN_MOTION":13.79879811,"ECCENTRICITY":0.02891401,"INCLINATION":74.0791,"RA_OF_ASC_NODE":170.0223,"ARG_OF_PERICENTER":259.3625,"MEAN_ANOMALY":132.1692,"EPHEMERIS_TYPE":0,"CLASSIFICATION_TYPE":"U","NORAD_CAT_ID":34340,"ELEMENT_SET_NO":999,"REV_AT_EPOCH":85407,"BSTAR":0.0019912378,"MEAN_MOTION_DOT":2.801e-5,"MEAN_MOTION_DDOT":0}]
